{"type": "FeatureCollection", "features": [ {"type": "Feature", "properties": {"norad_id": 31937, "name": "FENGYUN 1C DEB", "group": "fengyun-1c-debris", "lat": -79.41657460447219, "lon": -147.05217490178444, "alt_km": 531.2129758461906, "timestamp": "2025-12-27T21:25:02.799747+00:00", "meta": {"OBJECT_NAME": "FENGYUN 1C DEB", "OBJECT_ID": "1999-025CMN", "EPOCH": "2025-12-06T23:52:27.149088", "MEAN_MOTION": 14.78022374, "ECCENTRICITY": 0.0162921, "INCLINATION": 99.2561, "RA_OF_ASC_NODE": 69.7316, "ARG_OF_PERICENTER": 315.3928, "MEAN_ANOMALY": 43.4262, "EPHEMERIS_TYPE": 0, "CLASSIFICATION_TYPE": "U", "NORAD_CAT_ID": 31937, "ELEMENT_SET_NO": 999, "REV_AT_EPOCH": 65984, "BSTAR": 0.0011794166, "MEAN_MOTION_DOT": 0.00010567, "MEAN_MOTION_DDOT": 0}, "tle": {"line1": "1 31937U 99025CMN 25340.99475867  .00010567  00000+0  11794-2 0  9999", "line2": "2 31937  99.2561  69.7316 0162921 315.3928  43.4262 14.78022374659842"}}, "geometry": {"type": "Point", "coordinates": [-147.05217490178444, -79.41657460447219]}}, {"type": "Feature", "properties": {"norad_id": 31938, "name": "FENGYUN 1C DEB", "group": "fengyun-1c-debris", "lat": 79.77799659234095, "lon": -25.23597252753344, "alt_km": 530.7227607054119, "timestamp": "2025-12-27T21:25:02.799757+00:00", "meta": {"OBJECT_NAME": "FENGYUN 1C DEB", "OBJECT_ID": "1999-025CMP", "EPOCH": "2025-12-25T01:37:07.523616", "MEAN_MOTION": 14.95750647, "ECCENTRICITY": 0.01522723, "INCLINATION": 98.9279, "RA_OF_ASC_NODE": 32.2117, "ARG_OF_PERICENTER": 26.5882, "MEAN_ANOMALY": 334.3043, "EPHEMERIS_TYPE": 0, "CLASSIFICATION_TYPE": "U", "NORAD_CAT_ID": 31938, "ELEMENT_SET_NO": 999, "REV_AT_EPOCH": 99320, "BSTAR": 0.00040829597, "MEAN_MOTION_DOT": 5.665e-05, "MEAN_MOTION_DDOT": 0}, "tle": {"line1": "1 31938U 99025CMP 25359.06744819  .00005665  00000+0  40830-3 0  9991", "line2": "2 31938  98.9279  32.2117 0152272  26.5882 334.3043 14.95750647993207"}}, "geometry": {"type": "Point", "coordinates": [-25.23597252753344, 79.77799659234095]}}, {"type": "Feature", "properties": {"norad_id": 31944, "name": "FENGYUN 1C DEB", "group": "fengyun-1c-debris", "lat": 61.95210668034367, "lon": 132.07496717057052, "alt_km": 867.3707767582227, "timestamp": "2025-12-27T21:25:02.799767+00:00", "meta": {"OBJECT_NAME": "FENGYUN 1C DEB", "OBJECT_ID": "1999-025CMV", "EPOCH": "2025-12-12T04:22:40.814976", "MEAN_MOTION": 14.11787529, "ECCENTRICITY": 0.0151811, "INCLINATION": 99.2035, "RA_OF_ASC_NODE": 133.6743, "ARG_OF_PERICENTER": 5.8705, "MEAN_ANOMALY": 173.5719, "EPHEMERIS_TYPE": 0, "CLASSIFICATION_TYPE": "U", "NORAD_CAT_ID": 31944, "ELEMENT_SET_NO": 999, "REV_AT_EPOCH": 62902, "BSTAR": 0.0007470391, "MEAN_MOTION_DOT": 1.471e-05, "MEAN_MOTION_DDOT": 0}, "tle": {"line1": "1 31944U 99025CMV 25346.18241684  .00001471  00000+0  74704-3 0  9997", "line2": "2 31944  99.2035 133.6743 0151811   5.8705 173.5719 14.11787529629027"}}, "geometry": {"type": "Point", "coordinates": [132.07496717057052, 61.95210668034367]}}, {"type": "Feature", "properties": {"norad_id": 31945, "name": "FENGYUN 1C DEB", "group": "fengyun-1c-debris", "lat": -0.36856502313294964, "lon": -101.61411901180838, "alt_km": 805.186727962915, "timestamp": "2025-12-27T21:25:02.799778+00:00", "meta": {"OBJECT_NAME": "FENGYUN 1C DEB", "OBJECT_ID": "1999-025CMW", "EPOCH": "2025-12-27T03:39:55.884960", "MEAN_MOTION": 14.20894891, "ECCENTRICITY": 0.00623891, "INCLINATION": 98.9608, "RA_OF_ASC_NODE": 77.6942, "ARG_OF_PERICENTER": 246.1509, "MEAN_ANOMALY": 113.3121, "EPHEMERIS_TYPE": 0, "CLASSIFICATION_TYPE": "U", "NORAD_CAT_ID": 31945, "ELEMENT_SET_NO": 999, "REV_AT_EPOCH": 95400, "BSTAR": 0.0018636289, "MEAN_MOTION_DOT": 4.067e-05, "MEAN_MOTION_DDOT": 0}, "tle": {"line1": "1 31945U 99025CMW 25361.15273015  .00004067  00000+0  18636-2 0  9990", "line2": "2 31945  98.9608  77.6942 0062389 246.1509 113.3121 14.20894891954000"}}, "geometry": {"type": "Point", "coordinates": [-101.61411901180838, -0.36856502313294964]}}, {"type": "Feature", "properties": {"norad_id": 31946, "name": "FENGYUN 1C DEB", "group": "fengyun-1c-debris", "lat": 2.7155681290448577, "lon": -117.46370289352832, "alt_km": 897.8129945495484, "timestamp": "2025-12-27T21:25:02.799789+00:00", "meta": {"OBJECT_NAME": "FENGYUN 1C DEB", "OBJECT_ID": "1999-025CMX", "EPOCH": "2025-12-23T21:39:03.195648", "MEAN_MOTION": 14.16487077, "ECCENTRICITY": 0.0081473, "INCLINATION": 98.8969, "RA_OF_ASC_NODE": 58.1228, "ARG_OF_PERICENTER": 17.293, "MEAN_ANOMALY": 343.099, "EPHEMERIS_TYPE": 0, "CLASSIFICATION_TYPE": "U", "NORAD_CAT_ID": 31946, "ELEMENT_SET_NO": 999, "REV_AT_EPOCH": 64166, "BSTAR": 0.0012861, "MEAN_MOTION_DOT": 2.6e-05, "MEAN_MOTION_DDOT": 0}, "tle": {"line1": "1 31946U 99025CMX 25357.90212032  .00002600  00000+0  12861-2 0  9996", "line2": "2 31946  98.8969  58.1228 0081473  17.2930 343.0990 14.16487077641661"}}, "geometry": {"type": "Point", "coordinates": [-117.46370289352832, 2.7155681290448577]}}, {"type": "Feature", "properties": {"norad_id": 31948, "name": "FENGYUN 1C DEB", "group": "fengyun-1c-debris", "lat": 51.819474693872685, "lon": -104.38745504946513, "alt_km": 806.5790867073847, "timestamp": "2025-12-27T21:25:02.799799+00:00", "meta": {"OBJECT_NAME": "FENGYUN 1C DEB", "OBJECT_ID": "1999-025CMZ", "EPOCH": "2025-12-18T10:10:15.056832", "MEAN_MOTION": 14.28329763, "ECCENTRICITY": 0.00234205, "INCLINATION": 99.3923, "RA_OF_ASC_NODE": 53.282, "ARG_OF_PERICENTER": 5.6805, "MEAN_ANOMALY": 59.9549, "EPHEMERIS_TYPE": 0, "CLASSIFICATION_TYPE": "U", "NORAD_CAT_ID": 31948, "ELEMENT_SET_NO": 999, "REV_AT_EPOCH": 95109, "BSTAR": 0.0011732562, "MEAN_MOTION_DOT": 2.889e-05, "MEAN_MOTION_DDOT": 0}, "tle": {"line1": "1 31948U 99025CMZ 25352.42378538  .00002889  00000+0  11733-2 0  9990", "line2": "2 31948  99.3923  53.2820 0023420   5.6805  59.9549 14.28329763951097"}}, "geometry": {"type": "Point", "coordinates": [-104.38745504946513, 51.819474693872685]}}, {"type": "Feature", "properties": {"norad_id": 31949, "name": "FENGYUN 1C DEB", "group": "fengyun-1c-debris", "lat": 43.188397138126994, "lon": -21.29837650997115, "alt_km": 883.2969908631176, "timestamp": "2025-12-27T21:25:02.799809+00:00", "meta": {"OBJECT_NAME": "FENGYUN 1C DEB", "OBJECT_ID": "1999-025CNA", "EPOCH": "2025-12-23T05:21:04.784256", "MEAN_MOTION": 14.16925991, "ECCENTRICITY": 0.01261914, "INCLINATION": 98.5469, "RA_OF_ASC_NODE": 342.3284, "ARG_OF_PERICENTER": 182.1147, "MEAN_ANOMALY": 177.951, "EPHEMERIS_TYPE": 0, "CLASSIFICATION_TYPE": "U", "NORAD_CAT_ID": 31949, "ELEMENT_SET_NO": 999, "REV_AT_EPOCH": 95653, "BSTAR": 0.00025831817, "MEAN_MOTION_DOT": 5.19e-06, "MEAN_MOTION_DDOT": 0}, "tle": {"line1": "1 31949U 99025CNA 25357.22297204  .00000519  00000+0  25832-3 0  9998", "line2": "2 31949  98.5469 342.3284 0126191 182.1147 177.9510 14.16925991956534"}}, "geometry": {"type": "Point", "coordinates": [-21.29837650997115, 43.188397138126994]}}, {"type": "Feature", "properties": {"norad_id": 31952, "name": "FENGYUN 1C DEB", "group": "fengyun-1c-debris", "lat": 37.86516009063881, "lon": 112.98784463304224, "alt_km": 782.5130603341768, "timestamp": "2025-12-27T21:25:02.799819+00:00", "meta": {"OBJECT_NAME": "FENGYUN 1C DEB", "OBJECT_ID": "1999-025CND", "EPOCH": "2025-12-26T13:50:56.872032", "MEAN_MOTION": 14.53558379, "ECCENTRICITY": 0.0114073, "INCLINATION": 98.9559, "RA_OF_ASC_NODE": 118.6252, "ARG_OF_PERICENTER": 250.3882, "MEAN_ANOMALY": 108.497, "EPHEMERIS_TYPE": 0, "CLASSIFICATION_TYPE": "U", "NORAD_CAT_ID": 31952, "ELEMENT_SET_NO": 999, "REV_AT_EPOCH": 97410, "BSTAR": 0.00062735, "MEAN_MOTION_DOT": 2.797e-05, "MEAN_MOTION_DDOT": 0}, "tle": {"line1": "1 31952U 99025CND 25360.57704713  .00002797  00000+0  62735-3 0  9995", "line2": "2 31952  98.9559 118.6252 0114073 250.3882 108.4970 14.53558379974106"}}, "geometry": {"type": "Point", "coordinates": [112.98784463304224, 37.86516009063881]}}, {"type": "Feature", "properties": {"norad_id": 31955, "name": "FENGYUN 1C DEB", "group": "fengyun-1c-debris", "lat": -67.07263562921153, "lon": -96.65145073726269, "alt_km": 715.4918060749569, "timestamp": "2025-12-27T21:25:02.799829+00:00", "meta": {"OBJECT_NAME": "FENGYUN 1C DEB", "OBJECT_ID": "1999-025CNG", "EPOCH": "2025-12-26T14:42:52.983936", "MEAN_MOTION": 14.64112179, "ECCENTRICITY": 0.0043802, "INCLINATION": 99.2803, "RA_OF_ASC_NODE": 239.1674, "ARG_OF_PERICENTER": 138.0338, "MEAN_ANOMALY": 253.8761, "EPHEMERIS_TYPE": 0, "CLASSIFICATION_TYPE": "U", "NORAD_CAT_ID": 31955, "ELEMENT_SET_NO": 999, "REV_AT_EPOCH": 96760, "BSTAR": 0.0015887, "MEAN_MOTION_DOT": 8.412e-05, "MEAN_MOTION_DDOT": 0}, "tle": {"line1": "1 31955U 99025CNG 25360.61311324  .00008412  00000+0  15887-2 0  9990", "line2": "2 31955  99.2803 239.1674 0043802 138.0338 253.8761 14.64112179967607"}}, "geometry": {"type": "Point", "coordinates": [-96.65145073726269, -67.07263562921153]}}, {"type": "Feature", "properties": {"norad_id": 31959, "name": "FENGYUN 1C DEB", "group": "fengyun-1c-debris", "lat": 54.17230045420509, "lon": 64.94170928916684, "alt_km": 711.6559755224098, "timestamp": "2025-12-27T21:25:02.799840+00:00", "meta": {"OBJECT_NAME": "FENGYUN 1C DEB", "OBJECT_ID": "1999-025CNL", "EPOCH": "2025-12-21T22:06:57.352032", "MEAN_MOTION": 14.46896532, "ECCENTRICITY": 0.00273534, "INCLINATION": 98.5099, "RA_OF_ASC_NODE": 226.9733, "ARG_OF_PERICENTER": 126.577, "MEAN_ANOMALY": 233.7945, "EPHEMERIS_TYPE": 0, "CLASSIFICATION_TYPE": "U", "NORAD_CAT_ID": 31959, "ELEMENT_SET_NO": 999, "REV_AT_EPOCH": 64486, "BSTAR": 0.0023827795, "MEAN_MOTION_DOT": 8.652e-05, "MEAN_MOTION_DDOT": 0}, "tle": {"line1": "1 31959U 99025CNL 25355.92149713  .00008652  00000+0  23828-2 0  9993", "line2": "2 31959  98.5099 226.9733 0027353 126.5770 233.7945 14.46896532644868"}}, "geometry": {"type": "Point", "coordinates": [64.94170928916684, 54.17230045420509]}}]}